#cP2017 12  7  0  0  0.00000000      96 ORBIT IGS14 HLM  IGS
## 1978 345600.00000000   900.00000000 58094 0.0000000000000
+   32   G01G02G03G04G05G06G07G08G09G10G11G12G13G14G15G16G17
+        G18G19G20G21G22G23G24G25G26G27G28G29G30G31G32  0  0
+          0  0  0  0  0  0  0  0  0  0  0  0  0  0  0  0  0
+          0  0  0  0  0  0  0  0  0  0  0  0  0  0  0  0  0
+          0  0  0  0  0  0  0  0  0  0  0  0  0  0  0  0  0
++         2  2  2  0  2  2  2  2  2  2  2  2  2  2  2  2  2
++         2  2  2  2  2  2  3  2  2  2  2  2  2  2  2  0  0
++         0  0  0  0  0  0  0  0  0  0  0  0  0  0  0  0  0
++         0  0  0  0  0  0  0  0  0  0  0  0  0  0  0  0  0
++         0  0  0  0  0  0  0  0  0  0  0  0  0  0  0  0  0
%c G  cc GPS ccc cccc cccc cccc cccc ccccc ccccc ccccc ccccc
%c cc cc ccc ccc cccc cccc cccc cccc ccccc ccccc ccccc ccccc
%f  1.2500000  1.025000000  0.00000000000  0.000000000000000
%f  0.0000000  0.000000000  0.00000000000  0.000000000000000
%i    0    0    0    0      0      0      0      0         0
%i    0    0    0    0      0      0      0      0         0
/* RAPID ORBIT COMBINATION FROM WEIGHTED AVERAGE OF:        
/* cod emr esa gfz jpl ngs sio usn whu                      
/* REFERENCED TO IGS TIME (IGST) AND TO WEIGHTED MEAN POLE: 
/* PCV:IGS14_1977 OL/AL:FES2004  NONE     Y  ORB:CMB CLK:CMB
*  2017 12  7  3  0  0.00000000
PG01   4274.977000 -17358.915686 -19685.074930    -15.117274  4  6  2 100       
PG02 -21611.568937  14991.150043   2764.600512    261.994161  9  5  6 113       
PG03  -6474.449636 -18806.006419 -17645.502254    -31.037757  7  5  6  88       
PG04  23134.356950   6437.655150  11418.363761 999999.999999
PG05 -14185.396949   8723.580049  20628.437823    -20.524326  6  6  6 120       
PG06 -24382.910789   6113.381305  -8574.332661    412.472318  4  6  5 103       
PG07 -12230.256372 -10590.215476  21336.550306    269.484924  4  4  4  76       
PG08   5962.751247 -24739.118710   7453.485462    -83.213294  5  6    117       
PG09  -8929.999344 -21002.708808  13545.825500    480.292698  5  5  4  87       
PG10  23906.015129   9680.043306  -6622.669770    124.862505  7  6  6 104       
PG11   5023.748206 -22819.052718 -13307.815007   -729.584863  7  5  7 123       
PG12   2700.416245  17964.247684 -19613.962243    361.552572  7  7  7 107       
PG13 -12126.035554  19829.843747  12750.126674    -94.576308  9  5  5 111       
PG14  15285.767740  -4202.707913 -21006.769232    -90.072125  5  6  4 125       
PG15  -3196.939462  25554.637322   5397.434638   -357.359333  8  9  4 114       
PG16  13792.855226  -7270.455076  21436.485458     35.724904  7  7  4 130       
PG17 -13783.911898  -6381.908954 -21428.728222   -139.793593  5  7  6 113       
PG18  20772.469867  16107.998630   4989.038242    633.307821  5  4  5  96       
PG19 -15253.638468   3004.382302 -21841.808844   -471.408699  8 10  7 119       
PG20   3814.537544  17929.120497  19081.663107    494.861191  5  7  6 123       
PG21  14333.955286   9427.900073  21082.836281   -455.094168  5  5  3 102       
PG22   1386.286405 -16814.407257 -20271.934847   -213.797143  8  5  6  91       
PG23  -2041.793323 -25979.292065   4014.483305   -218.915911  9  9  6 112       
PG24  -6770.850453  18586.147334 -17693.081375    -43.127671  8  7  9  80       
PG25  15119.173503  18885.067695 -11379.371821   -501.600988  5  4  4 103       
PG26  21391.233133    105.352751  15818.978743   -334.811050  4  5  3 131       
PG27  12210.522575 -16073.010848  17081.582450    354.014204  3  4  4 122       
PG28 -22047.653231 -14315.499918  -3046.522904    668.827641  5  8  6 109       
PG29   4275.488856  24172.225738  10151.495804    528.630992  7  6 10 139       
PG30 -20334.714716  -4028.299447  16691.108545    122.682066  5  3  5 109       
PG31  24958.857577  -6536.388864  -7100.758051    157.213708  4  6  6  97       
PG32  15030.851278   3842.082415 -21539.831196   -528.406559  5  6  6 105       
*  2017 12  7  3 15  0.00000000
PG01   6216.639648 -18292.187353 -18235.731301    -15.119514  5  6  3  74       
PG02 -21861.117472  14780.343736    -79.141250    261.985261  9  6  6 101       
PG03  -4599.777074 -17848.157847 -19161.021911    -31.032390  7  5  6  84       
PG04  24045.653113   7205.718887   8864.703308 999999.999999
PG05 -16160.531179   7492.525967  19659.644598    -20.523209  6  7  6 106       
PG06 -23501.233404   5378.402385 -11137.802695    412.473322  4  6  5  93       
PG07 -10108.385997 -11754.649295  21797.649147    269.480326  4  4  3  86       
PG08   6183.477498 -23740.081211  10088.504193    -83.214195  4  6    109       
PG09  -8700.052993 -22426.243114  11219.001152    480.296690  5  6  5  74       
PG10  24301.408124  10191.399136  -3860.468707    124.868763  7  6  5 113       
PG11   6079.010367 -23685.394624 -11082.868153   -729.585943  7  5  7 114       
PG12    788.846048  16741.422439 -20821.434925    361.550889  7  7  7  79       
PG13 -12098.808344  18218.161590  14966.144655    -94.576646  9  4  5 121       
PG14  15115.112360  -1715.853655 -21483.843207    -90.072868  5  7  4 116       
PG15  -3610.350933  24774.459461   8062.772026   -357.359195  8  9  4 105       
PG16  15742.001270  -5844.365830  20552.430100     35.724515  6  7  3 127       
PG17 -13583.257097  -8856.378025 -20690.069696   -139.791458  4  7  6 110       
PG18  20044.432286  16084.094927   7639.511176    633.308129  5  4  5  97       
PG19 -15003.415388    564.582699 -22197.456637   -471.406781  7 10  6 114       
PG20   1686.533474  17091.598054  20117.223152    494.862070  4  6  6 119       
PG21  12418.141836  10685.341023  21708.334339   -455.091209  5  6  2  82       
PG22   3560.687839 -15761.018187 -20840.784187   -213.808555  8  6  6 116       
PG23  -1708.071744 -26253.320822   1189.049054   -218.916083  8  9  6  96       
PG24  -8514.698770  19416.921593 -15926.452559    -43.126850  8  8  9  80       
PG25  13833.090903  18298.896639 -13739.350885   -501.606549  6  4  4 102       
PG26  22762.337790   1106.381337  13739.001269   -334.798064  4  5  3 129       
PG27  12328.499355 -14006.890898  18749.993487    354.016907  3  3  5 119       
PG28 -22145.879651 -14612.751812   -144.790067    668.830414  5  8  5  93       
PG29   4028.668070  25165.392826   7495.265794    528.626063  8  7 10 138       
PG30 -18610.359480  -5058.228299  18329.093993    122.679436  4  3  5 117       
PG31  24199.092574  -5919.805159  -9722.528450    157.211353  4  6  6  91       
PG32  14971.864519   6281.392180 -21007.299942   -528.408469  5  7  6  95       
*  2017 12  7  3 30  0.00000000
PG01   7954.948622 -19231.082468 -16472.828924    -15.121733  6  6  4  90       
PG02 -21860.118614  14389.799470  -2921.442598    261.976172  8  6  7  96       
PG03  -2541.863661 -16918.975567 -20347.810782    -31.026976  7  5  6  92       
PG04  24736.864028   7776.163404   6159.495099 999999.999999
PG05 -18077.213474   6419.939686  18351.368951    -20.521930  6  7  7 102       
PG06 -22425.207342   4445.188140 -13509.521679    412.474331  4  6  4  87       
PG07  -8021.066639 -13048.012479  21891.529531    269.475669  4  4  3  91       
PG08   6473.239931 -22466.036115  12549.221850    -83.215108  4  6    108       
PG09  -8527.067386 -23585.521959   8698.700617    480.300662  5  7  6  66       
PG10  24442.330276  10537.163075  -1032.359557    124.874990  7  6  5 100       
PG11   6956.012115 -24385.416134  -8673.250182   -729.587443  8  5  7 104       
PG12  -1290.028201  15569.878168 -21677.349445    361.549415  7  7  7  77       
PG13 -12141.153581  16369.823869  16922.852850    -94.576799  8  4  5 115       
PG14  15071.365200    808.080819 -21581.254133    -90.073474  6  7  4 118       
PG15  -4095.786007  23720.375623  10585.223163   -357.359203  8  9  5 112       
PG16  17662.795826  -4596.823124  19313.908746     35.724378  6  7  3 123       
PG17 -13518.248402 -11229.064788 -19584.220061   -139.788698  4  7  5 111       
PG18  19057.880327  15972.623127  10162.191948    633.308344  6  4  5 101       
PG19 -14888.827994  -1906.218966 -22181.228218   -471.404658  6 10  5 107       
PG20   -569.533331  16317.638519  20802.337624    494.863463  4  6  6 120       
PG21  10529.913686  12067.276666  21985.837325   -455.087689  6  6  2  94       
PG22   5820.819824 -14789.483076 -21043.274669   -213.820260  8  6  6  98       
PG23  -1367.381910 -26220.549237  -1657.349237   -218.915843  8  9  6  52       
PG24 -10041.017256  20209.978039 -13884.432368    -43.127711  8  8  9  45       
PG25  12292.921957  17668.164024 -15867.579093   -501.612088  6  4  4  97       
PG26  23960.917611   1924.326455  11423.906975   -334.785116  4  5  3 124       
PG27  12566.664687 -11780.155918  20091.826860    354.019622  4  2  5 119       
PG28 -21983.423225 -14724.526722   2759.507015    668.833890  5  8  5 104       
PG29   3840.849562  25861.972811   4710.103478    528.621586  8  8 10 141       
PG30 -16793.497917  -6255.952979  19653.291630    122.676823  5  3  5 118       
PG31  23228.319118  -5115.025810 -12180.340121    157.209182  4  5  6  91       
PG32  15034.346988   8639.164387 -20112.893524   -528.410380  6  7  5  86       
EOF
